{
  "type": "FeatureCollection",
  "features": [
    {
      "type": "Feature",
      "properties": {
        "norad_id": 24876,
        "name": "GPS BIIR-2  (PRN 13)",
        "group": "gps-ops",
        "lat": -48.353171739370275,
        "lon": 56.44191678525818,
        "alt_km": 20319.59420635652,
        "timestamp": "2025-12-08T15:42:50.049336+00:00",
        "meta_object_name": "GPS BIIR-2  (PRN 13)",
        "meta_object_id": "1997-035A",
        "meta_epoch": "2025-12-08T05:53:26.454912",
        "meta_mean_motion": 2.00563507,
        "meta_eccentricity": 0.00967273,
        "meta_inclination": 55.8931,
        "meta_ra_of_asc_node": 106.0447,
        "meta_arg_of_pericenter": 57.0161,
        "meta_mean_anomaly": 303.881,
        "meta_ephemeris_type": 0,
        "meta_classification_type": "U",
        "meta_norad_cat_id": 24876,
        "meta_element_set_no": 999,
        "meta_rev_at_epoch": 20812,
        "meta_bstar": 0,
        "meta_mean_motion_dot": 1.5e-07,
        "meta_mean_motion_ddot": 0,
        "tle_line1": "1 24876U 97035A   25342.24544508  .00000015  00000+0  00000+0 0  9993",
        "tle_line2": "2 24876  55.8931 106.0447 0096727  57.0161 303.8810  2.00563507208127"
      },
      "geometry": {
        "type": "Point",
        "coordinates": [
          56.44191678525818,
          -48.353171739370275
        ]
      }
    },
    {
      "type": "Feature",
      "properties": {
        "norad_id": 26360,
        "name": "GPS BIIR-4  (PRN 20)",
        "group": "gps-ops",
        "lat": 23.02776889365558,
        "lon": 44.307847753562484,
        "alt_km": 20265.619732433206,
        "timestamp": "2025-12-08T15:42:50.049390+00:00",
        "meta_object_name": "GPS BIIR-4  (PRN 20)",
        "meta_object_id": "2000-025A",
        "meta_epoch": "2025-12-08T05:53:38.603616",
        "meta_mean_motion": 2.00567966,
        "meta_eccentricity": 0.00388423,
        "meta_inclination": 55.0425,
        "meta_ra_of_asc_node": 27.0197,
        "meta_arg_of_pericenter": 241.5588,
        "meta_mean_anomaly": 211.3182,
        "meta_ephemeris_type": 0,
        "meta_classification_type": "U",
        "meta_norad_cat_id": 26360,
        "meta_element_set_no": 999,
        "meta_rev_at_epoch": 18744,
        "meta_bstar": 0,
        "meta_mean_motion_dot": -8.7e-07,
        "meta_mean_motion_ddot": 0,
        "tle_line1": "1 26360U 00025A   25342.24558569 -.00000087  00000+0  00000+0 0  9998",
        "tle_line2": "2 26360  55.0425  27.0197 0038842 241.5588 211.3182  2.00567966187447"
      },
      "geometry": {
        "type": "Point",
        "coordinates": [
          44.307847753562484,
          23.02776889365558
        ]
      }
    },
    {
      "type": "Feature",
      "properties": {
        "norad_id": 26407,
        "name": "GPS BIIR-5  (PRN 22)",
        "group": "gps-ops",
        "lat": -36.380996346168594,
        "lon": 73.93333383643557,
        "alt_km": 20097.503213616397,
        "timestamp": "2025-12-08T15:42:50.049409+00:00",
        "meta_object_name": "GPS BIIR-5  (PRN 22)",
        "meta_object_id": "2000-040A",
        "meta_epoch": "2025-12-08T00:47:10.344768",
        "meta_mean_motion": 2.00567815,
        "meta_eccentricity": 0.01262679,
        "meta_inclination": 54.8919,
        "meta_ra_of_asc_node": 222.7562,
        "meta_arg_of_pericenter": 301.7217,
        "meta_mean_anomaly": 197.0667,
        "meta_ephemeris_type": 0,
        "meta_classification_type": "U",
        "meta_norad_cat_id": 26407,
        "meta_element_set_no": 999,
        "meta_rev_at_epoch": 18611,
        "meta_bstar": 0,
        "meta_mean_motion_dot": 2e-07,
        "meta_mean_motion_ddot": 0,
        "tle_line1": "1 26407U 00040A   25342.03275862  .00000020  00000+0  00000+0 0  9992",
        "tle_line2": "2 26407  54.8919 222.7562 0126267 301.7217 197.0667  2.00567815186115"
      },
      "geometry": {
        "type": "Point",
        "coordinates": [
          73.93333383643557,
          -36.380996346168594
        ]
      }
    },
    {
      "type": "Feature",
      "properties": {
        "norad_id": 27663,
        "name": "GPS BIIR-8  (PRN 16)",
        "group": "gps-ops",
        "lat": 1.9552689933807752,
        "lon": -136.07634942024737,
        "alt_km": 19923.04013302371,
        "timestamp": "2025-12-08T15:42:50.049425+00:00",
        "meta_object_name": "GPS BIIR-8  (PRN 16)",
        "meta_object_id": "2003-005A",
        "meta_epoch": "2025-12-07T16:01:06.566304",
        "meta_mean_motion": 2.00571101,
        "meta_eccentricity": 0.01472532,
        "meta_inclination": 54.9246,
        "meta_ra_of_asc_node": 222.5801,
        "meta_arg_of_pericenter": 51.7313,
        "meta_mean_anomaly": 319.0971,
        "meta_ephemeris_type": 0,
        "meta_classification_type": "U",
        "meta_norad_cat_id": 27663,
        "meta_element_set_no": 999,
        "meta_rev_at_epoch": 16747,
        "meta_bstar": 0,
        "meta_mean_motion_dot": 2.5e-07,
        "meta_mean_motion_ddot": 0,
        "tle_line1": "1 27663U 03005A   25341.66743711  .00000025  00000+0  00000+0 0  9997",
        "tle_line2": "2 27663  54.9246 222.5801 0147253  51.7313 319.0971  2.00571101167470"
      },
      "geometry": {
        "type": "Point",
        "coordinates": [
          -136.07634942024737,
          1.9552689933807752
        ]
      }
    },
    {
      "type": "Feature",
      "properties": {
        "norad_id": 28190,
        "name": "GPS BIIR-11 (PRN 19)",
        "group": "gps-ops",
        "lat": 14.203931214467591,
        "lon": 93.16079357072651,
        "alt_km": 19893.992889242916,
        "timestamp": "2025-12-08T15:42:50.049439+00:00",
        "meta_object_name": "GPS BIIR-11 (PRN 19)",
        "meta_object_id": "2004-009A",
        "meta_epoch": "2025-12-08T00:54:44.996256",
        "meta_mean_motion": 2.00560848,
        "meta_eccentricity": 0.01082887,
        "meta_inclination": 54.99,
        "meta_ra_of_asc_node": 283.4084,
        "meta_arg_of_pericenter": 167.5613,
        "meta_mean_anomaly": 269.7716,
        "meta_ephemeris_type": 0,
        "meta_classification_type": "U",
        "meta_norad_cat_id": 28190,
        "meta_element_set_no": 999,
        "meta_rev_at_epoch": 15911,
        "meta_bstar": 0,
        "meta_mean_motion_dot": -4.5e-07,
        "meta_mean_motion_ddot": 0,
        "tle_line1": "1 28190U 04009A   25342.03802079 -.00000045  00000+0  00000+0 0  9996",
        "tle_line2": "2 28190  54.9900 283.4084 0108288 167.5613 269.7716  2.00560848159112"
      },
      "geometry": {
        "type": "Point",
        "coordinates": [
          93.16079357072651,
          14.203931214467591
        ]
      }
    },
    {
      "type": "Feature",
      "properties": {
        "norad_id": 28474,
        "name": "GPS BIIR-13 (PRN 02)",
        "group": "gps-ops",
        "lat": -32.396231492441025,
        "lon": 178.6973182162716,
        "alt_km": 20164.289930385454,
        "timestamp": "2025-12-08T15:42:50.049451+00:00",
        "meta_object_name": "GPS BIIR-13 (PRN 02)",
        "meta_object_id": "2004-045A",
        "meta_epoch": "2025-12-07T20:16:35.351904",
        "meta_mean_motion": 2.00569143,
        "meta_eccentricity": 0.0170668,
        "meta_inclination": 55.2431,
        "meta_ra_of_asc_node": 332.6027,
        "meta_arg_of_pericenter": 309.0357,
        "meta_mean_anomaly": 48.7901,
        "meta_ephemeris_type": 0,
        "meta_classification_type": "U",
        "meta_norad_cat_id": 28474,
        "meta_element_set_no": 999,
        "meta_rev_at_epoch": 15458,
        "meta_bstar": 0,
        "meta_mean_motion_dot": -8.2e-07,
        "meta_mean_motion_ddot": 0,
        "tle_line1": "1 28474U 04045A   25341.84485361 -.00000082  00000+0  00000+0 0  9991",
        "tle_line2": "2 28474  55.2431 332.6027 0170668 309.0357  48.7901  2.00569143154587"
      },
      "geometry": {
        "type": "Point",
        "coordinates": [
          178.6973182162716,
          -32.396231492441025
        ]
      }
    },
    {
      "type": "Feature",
      "properties": {
        "norad_id": 28874,
        "name": "GPS BIIRM-1 (PRN 17)",
        "group": "gps-ops",
        "lat": -0.01327991896770593,
        "lon": 100.85895237887401,
        "alt_km": 20316.817139237843,
        "timestamp": "2025-12-08T15:42:50.049464+00:00",
        "meta_object_name": "GPS BIIRM-1 (PRN 17)",
        "meta_object_id": "2005-038A",
        "meta_epoch": "2025-12-08T01:59:22.553088",
        "meta_mean_motion": 2.00578599,
        "meta_eccentricity": 0.01317899,
        "meta_inclination": 55.0361,
        "meta_ra_of_asc_node": 280.8884,
        "meta_arg_of_pericenter": 293.3737,
        "meta_mean_anomaly": 195.059,
        "meta_ephemeris_type": 0,
        "meta_classification_type": "U",
        "meta_norad_cat_id": 28874,
        "meta_element_set_no": 999,
        "meta_rev_at_epoch": 14800,
        "meta_bstar": 0,
        "meta_mean_motion_dot": -4.3e-07,
        "meta_mean_motion_ddot": 0,
        "tle_line1": "1 28874U 05038A   25342.08289992 -.00000043  00000+0  00000+0 0  9994",
        "tle_line2": "2 28874  55.0361 280.8884 0131789 293.3737 195.0590  2.00578599148009"
      },
      "geometry": {
        "type": "Point",
        "coordinates": [
          100.85895237887401,
          -0.01327991896770593
        ]
      }
    }
  ]
}